ONEWEB-0545             
1 54647U 22166F   24143.21025644  .00000077  00000+0  15506-3 0  9994
2 54647  87.9309  34.4887 0001390  91.2335 268.8958 13.21828156 72107
ONEWEB-0580             
1 54648U 22166G   24143.25914223 -.00000266  00000+0 -67464-3 0  9991
2 54648  87.9316  34.4455 0001274  74.7292 285.3983 13.21825123 71681
ONEWEB-0582             
1 54649U 22166H   24144.21007533  .00000089  00000+0  18414-3 0  9998
2 54649  87.9314  34.2944 0001471  86.5950 273.5352 13.21828560 72253
ONEWEB-0583             
1 54650U 22166J   24143.23707006  .00000007  00000+0 -14619-4 0  9998
2 54650  87.9311  34.4885 0002188  84.6559 275.4824 13.21823816 71666
ONEWEB-0584             
1 54651U 22166K   24144.16592082  .00000202  00000+0  45873-3 0  9999
2 54651  87.9308  34.2692 0001984  73.9828 286.1524 13.21829003 72245
ONEWEB-0585             
1 54652U 22166L   24143.20710198  .00000070  00000+0  13767-3 0  9994
2 54652  87.9318  34.4672 0001886  87.5163 272.6187 13.21828064 71656
ONEWEB-0586             
1 54653U 22166M   24143.21973538  .00000061  00000+0  11548-3 0  9990
2 54653  87.9314  34.4811 0001590  81.0844 279.0470 13.21827966 71651
ONEWEB-0587             
1 54654U 22166N   24144.21324358  .00000042  00000+0  71283-4 0  9994
2 54654  87.9310  34.2393 0002156  82.5285 277.6094 13.21825413 72400
